[
    {
        "Altitude(m)": 622205.8292410934,
        "Argument of Periapsis(deg)": 0.0,
        "Eccentricity": 0.0,
        "Inclination(deg)": 60.0,
        "Latitude(deg)": -52.16232984642747,
        "Longitude(deg)": 107.70038452604564,
        "Mean Anomaly(deg)": -114.54549999999998,
        "RAAN(deg)": 340.00000000000006,
        "Satellite Name": "Test1 1511",
        "Satellite Number": 1511,
        "Semi-Major Axis(m)": 6980739.136638005,
        "Time(s)": 0
    },
    {
        "Altitude(m)": 622344.7359482305,
        "Argument of Periapsis(deg)": 0.00010418945913296404,
        "Eccentricity": 0.0,
        "Inclination(deg)": 60.0,
        "Latitude(deg)": -52.51990956406838,
        "Longitude(deg)": 108.48159489509248,
        "Mean Anomaly(deg)": -113.9253938545381,
        "RAAN(deg)": 339.99957995086027,
        "Satellite Name": "Test1 1511",
        "Satellite Number": 1511,
        "Semi-Major Axis(m)": 6980739.136638005,
        "Time(s)": 10
    }
]